IRIDIUM 63              
1 25286U 98021B   25149.09382926  .00000413  00000+0  13410-3 0  9992
2 25286  86.3969  90.1416 0002256  81.1769 278.9684 14.36531472421371
IRIDIUM 69              
1 25319U 98026A   25149.16499536  .00000483  00000+0  14417-3 0  9993
2 25319  86.3959 103.4611 0004688  86.4929 273.6807 14.40948670420565
IRIDIUM 71              
1 25320U 98026B   25149.10491025  .00000411  00000+0  12124-3 0  9998
2 25320  86.3959  98.1795 0003794 116.3467 243.8122 14.41142683421096
IRIDIUM 73              
1 25344U 98032C   25149.17540032  .00000575  00000+0  13815-3 0  9990
2 25344  86.4425  54.8906 0002917  79.3250 280.8283 14.51694771428107
IRIDIUM 82              
1 25467U 98051A   25148.95320953  .00027186  00000+0  79543-3 0  9997
2 25467  86.3662 119.1900 0087052  12.2439 348.0896 15.31336345421011
